{"type": "FeatureCollection", "features": [ {"type": "Feature", "properties": {"norad_id": 34529, "name": "IRIDIUM 33 DEB", "group": "iridium-33-debris", "lat": 61.414287110892204, "lon": -155.31062620083387, "alt_km": 747.0015048450696, "timestamp": "2025-12-22T04:03:39.553915+00:00", "meta": {"OBJECT_NAME": "IRIDIUM 33 DEB", "OBJECT_ID": "1997-051HW", "EPOCH": "2025-12-21T09:10:35.665536", "MEAN_MOTION": 14.4062226, "ECCENTRICITY": 0.00057974, "INCLINATION": 86.3634, "RA_OF_ASC_NODE": 31.7273, "ARG_OF_PERICENTER": 151.7059, "MEAN_ANOMALY": 208.4457, "EPHEMERIS_TYPE": 0, "CLASSIFICATION_TYPE": "U", "NORAD_CAT_ID": 34529, "ELEMENT_SET_NO": 999, "REV_AT_EPOCH": 88266, "BSTAR": 9.6722833e-05, "MEAN_MOTION_DOT": 3.28e-06, "MEAN_MOTION_DDOT": 0}, "tle": {"line1": "1 34529U 97051HW  25355.38235724  .00000328  00000+0  96723-4 0  9992", "line2": "2 34529  86.3634  31.7273 0005797 151.7059 208.4457 14.40622260882661"}}, "geometry": {"type": "Point", "coordinates": [-155.31062620083387, 61.414287110892204]}}, {"type": "Feature", "properties": {"norad_id": 34538, "name": "IRIDIUM 33 DEB", "group": "iridium-33-debris", "lat": 25.357441626701355, "lon": 3.194185334531939, "alt_km": 748.82040007467, "timestamp": "2025-12-22T04:03:39.553925+00:00", "meta": {"OBJECT_NAME": "IRIDIUM 33 DEB", "OBJECT_ID": "1997-051JF", "EPOCH": "2025-12-21T12:00:19.123776", "MEAN_MOTION": 14.42695029, "ECCENTRICITY": 0.00320877, "INCLINATION": 86.2759, "RA_OF_ASC_NODE": 1.7183, "ARG_OF_PERICENTER": 297.7157, "MEAN_ANOMALY": 215.1252, "EPHEMERIS_TYPE": 0, "CLASSIFICATION_TYPE": "U", "NORAD_CAT_ID": 34538, "ELEMENT_SET_NO": 999, "REV_AT_EPOCH": 87882, "BSTAR": 0.00071835416, "MEAN_MOTION_DOT": 2.423e-05, "MEAN_MOTION_DDOT": 0}, "tle": {"line1": "1 34538U 97051JF  25355.50022134  .00002423  00000+0  71835-3 0  9999", "line2": "2 34538  86.2759   1.7183 0032087 297.7157 215.1252 14.42695029878823"}}, "geometry": {"type": "Point", "coordinates": [3.194185334531939, 25.357441626701355]}}, {"type": "Feature", "properties": {"norad_id": 34540, "name": "IRIDIUM 33 DEB", "group": "iridium-33-debris", "lat": 66.69721863199901, "lon": 114.68124663618799, "alt_km": 625.070169094839, "timestamp": "2025-12-22T04:03:39.553936+00:00", "meta": {"OBJECT_NAME": "IRIDIUM 33 DEB", "OBJECT_ID": "1997-051JH", "EPOCH": "2025-12-21T19:30:48.758112", "MEAN_MOTION": 14.75487187, "ECCENTRICITY": 0.0017806, "INCLINATION": 86.3115, "RA_OF_ASC_NODE": 303.4575, "ARG_OF_PERICENTER": 128.6543, "MEAN_ANOMALY": 253.8683, "EPHEMERIS_TYPE": 0, "CLASSIFICATION_TYPE": "U", "NORAD_CAT_ID": 34540, "ELEMENT_SET_NO": 999, "REV_AT_EPOCH": 89155, "BSTAR": 0.0012465, "MEAN_MOTION_DOT": 8.527e-05, "MEAN_MOTION_DDOT": 0}, "tle": {"line1": "1 34540U 97051JH  25355.81306433  .00008527  00000+0  12465-2 0  9997", "line2": "2 34540  86.3115 303.4575 0017806 128.6543 253.8683 14.75487187891555"}}, "geometry": {"type": "Point", "coordinates": [114.68124663618799, 66.69721863199901]}}, {"type": "Feature", "properties": {"norad_id": 34648, "name": "IRIDIUM 33 DEB", "group": "iridium-33-debris", "lat": -77.0112288440827, "lon": 114.01868204129141, "alt_km": 733.4446262981337, "timestamp": "2025-12-22T04:03:39.553947+00:00", "meta": {"OBJECT_NAME": "IRIDIUM 33 DEB", "OBJECT_ID": "1997-051JZ", "EPOCH": "2025-12-21T18:19:39.887040", "MEAN_MOTION": 14.11736102, "ECCENTRICITY": 0.0179823, "INCLINATION": 86.3908, "RA_OF_ASC_NODE": 278.3021, "ARG_OF_PERICENTER": 270.6006, "MEAN_ANOMALY": 87.4576, "EPHEMERIS_TYPE": 0, "CLASSIFICATION_TYPE": "U", "NORAD_CAT_ID": 34648, "ELEMENT_SET_NO": 999, "REV_AT_EPOCH": 85088, "BSTAR": 0.0054658, "MEAN_MOTION_DOT": 0.00011615, "MEAN_MOTION_DDOT": 0}, "tle": {"line1": "1 34648U 97051JZ  25355.76365610  .00011615  00000+0  54658-2 0  9994", "line2": "2 34648  86.3908 278.3021 0179823 270.6006  87.4576 14.11736102850887"}}, "geometry": {"type": "Point", "coordinates": [114.01868204129141, -77.0112288440827]}}, {"type": "Feature", "properties": {"norad_id": 34651, "name": "IRIDIUM 33 DEB", "group": "iridium-33-debris", "lat": 76.693648240529, "lon": 152.52084393123448, "alt_km": 808.7930611935899, "timestamp": "2025-12-22T04:03:39.553957+00:00", "meta": {"OBJECT_NAME": "IRIDIUM 33 DEB", "OBJECT_ID": "1997-051KC", "EPOCH": "2025-12-19T16:44:48.420096", "MEAN_MOTION": 14.25922062, "ECCENTRICITY": 0.01422464, "INCLINATION": 86.2827, "RA_OF_ASC_NODE": 137.6175, "ARG_OF_PERICENTER": 181.9677, "MEAN_ANOMALY": 178.0974, "EPHEMERIS_TYPE": 0, "CLASSIFICATION_TYPE": "U", "NORAD_CAT_ID": 34651, "ELEMENT_SET_NO": 999, "REV_AT_EPOCH": 85995, "BSTAR": 0.0022061693, "MEAN_MOTION_DOT": 5.865e-05, "MEAN_MOTION_DDOT": 0}, "tle": {"line1": "1 34651U 97051KC  25353.69778264  .00005865  00000+0  22062-2 0  9995", "line2": "2 34651  86.2827 137.6175 0142246 181.9677 178.0974 14.25922062859957"}}, "geometry": {"type": "Point", "coordinates": [152.52084393123448, 76.693648240529]}}, {"type": "Feature", "properties": {"norad_id": 34652, "name": "IRIDIUM 33 DEB", "group": "iridium-33-debris", "lat": -81.80019970212089, "lon": -50.636633019112764, "alt_km": 676.2180537532104, "timestamp": "2025-12-22T04:03:39.553967+00:00", "meta": {"OBJECT_NAME": "IRIDIUM 33 DEB", "OBJECT_ID": "1997-051KD", "EPOCH": "2025-12-21T05:29:24.538272", "MEAN_MOTION": 14.62128423, "ECCENTRICITY": 0.0025487, "INCLINATION": 86.3314, "RA_OF_ASC_NODE": 336.221, "ARG_OF_PERICENTER": 267.1492, "MEAN_ANOMALY": 103.1146, "EPHEMERIS_TYPE": 0, "CLASSIFICATION_TYPE": "U", "NORAD_CAT_ID": 34652, "ELEMENT_SET_NO": 999, "REV_AT_EPOCH": 88608, "BSTAR": 0.00068722, "MEAN_MOTION_DOT": 3.491e-05, "MEAN_MOTION_DDOT": 0}, "tle": {"line1": "1 34652U 97051KD  25355.22875623  .00003491  00000+0  68722-3 0  9991", "line2": "2 34652  86.3314 336.2210 0025487 267.1492 103.1146 14.62128423886080"}}, "geometry": {"type": "Point", "coordinates": [-50.636633019112764, -81.80019970212089]}}, {"type": "Feature", "properties": {"norad_id": 34690, "name": "IRIDIUM 33 DEB", "group": "iridium-33-debris", "lat": -82.26022068350994, "lon": -119.323223955849, "alt_km": 717.0061797555109, "timestamp": "2025-12-22T04:03:39.553977+00:00", "meta": {"OBJECT_NAME": "IRIDIUM 33 DEB", "OBJECT_ID": "1997-051KM", "EPOCH": "2025-12-21T02:14:02.861088", "MEAN_MOTION": 14.55122739, "ECCENTRICITY": 0.00098763, "INCLINATION": 86.3773, "RA_OF_ASC_NODE": 33.3605, "ARG_OF_PERICENTER": 1.7251, "MEAN_ANOMALY": 27.9675, "EPHEMERIS_TYPE": 0, "CLASSIFICATION_TYPE": "U", "NORAD_CAT_ID": 34690, "ELEMENT_SET_NO": 999, "REV_AT_EPOCH": 88216, "BSTAR": 0.00028932758, "MEAN_MOTION_DOT": 1.27e-05, "MEAN_MOTION_DDOT": 0}, "tle": {"line1": "1 34690U 97051KM  25355.09308867  .00001270  00000+0  28933-3 0  9992", "line2": "2 34690  86.3773  33.3605 0009876   1.7251  27.9675 14.55122739882164"}}, "geometry": {"type": "Point", "coordinates": [-119.323223955849, -82.26022068350994]}}, {"type": "Feature", "properties": {"norad_id": 34693, "name": "IRIDIUM 33 DEB", "group": "iridium-33-debris", "lat": -62.50958859440528, "lon": -68.00148004796667, "alt_km": 483.94785769343434, "timestamp": "2025-12-22T04:03:39.553987+00:00", "meta": {"OBJECT_NAME": "IRIDIUM 33 DEB", "OBJECT_ID": "1997-051KQ", "EPOCH": "2025-12-21T14:58:16.935168", "MEAN_MOTION": 15.29927761, "ECCENTRICITY": 0.0011182, "INCLINATION": 86.3053, "RA_OF_ASC_NODE": 299.4039, "ARG_OF_PERICENTER": 37.1578, "MEAN_ANOMALY": 138.3014, "EPHEMERIS_TYPE": 0, "CLASSIFICATION_TYPE": "U", "NORAD_CAT_ID": 34693, "ELEMENT_SET_NO": 999, "REV_AT_EPOCH": 89050, "BSTAR": 0.0042681, "MEAN_MOTION_DOT": 0.00125697, "MEAN_MOTION_DDOT": 0}, "tle": {"line1": "1 34693U 97051KQ  25355.62380712  .00125697  00000+0  42681-2 0  9998", "line2": "2 34693  86.3053 299.4039 0011182  37.1578 138.3014 15.29927761890503"}}, "geometry": {"type": "Point", "coordinates": [-68.00148004796667, -62.50958859440528]}}, {"type": "Feature", "properties": {"norad_id": 34696, "name": "IRIDIUM 33 DEB", "group": "iridium-33-debris", "lat": 27.010151105764265, "lon": 25.083241431212013, "alt_km": 690.8222497078477, "timestamp": "2025-12-22T04:03:39.553997+00:00", "meta": {"OBJECT_NAME": "IRIDIUM 33 DEB", "OBJECT_ID": "1997-051KT", "EPOCH": "2025-12-21T20:32:12.261408", "MEAN_MOTION": 14.65486354, "ECCENTRICITY": 0.0074103, "INCLINATION": 86.1829, "RA_OF_ASC_NODE": 23.2789, "ARG_OF_PERICENTER": 136.8166, "MEAN_ANOMALY": 38.2316, "EPHEMERIS_TYPE": 0, "CLASSIFICATION_TYPE": "U", "NORAD_CAT_ID": 34696, "ELEMENT_SET_NO": 999, "REV_AT_EPOCH": 86806, "BSTAR": 0.0034933, "MEAN_MOTION_DOT": 0.0001976, "MEAN_MOTION_DDOT": 0}, "tle": {"line1": "1 34696U 97051KT  25355.85569747  .00019760  00000+0  34933-2 0  9997", "line2": "2 34696  86.1829  23.2789 0074103 136.8166  38.2316 14.65486354868068"}}, "geometry": {"type": "Point", "coordinates": [25.083241431212013, 27.010151105764265]}}, {"type": "Feature", "properties": {"norad_id": 34765, "name": "IRIDIUM 33 DEB", "group": "iridium-33-debris", "lat": 24.01618978398496, "lon": -152.92007393869443, "alt_km": 745.6092104346953, "timestamp": "2025-12-22T04:03:39.554008+00:00", "meta": {"OBJECT_NAME": "IRIDIUM 33 DEB", "OBJECT_ID": "1997-051LJ", "EPOCH": "2025-12-21T13:03:17.424288", "MEAN_MOTION": 14.40485449, "ECCENTRICITY": 0.0016466, "INCLINATION": 86.3382, "RA_OF_ASC_NODE": 28.9833, "ARG_OF_PERICENTER": 181.3076, "MEAN_ANOMALY": 334.2319, "EPHEMERIS_TYPE": 0, "CLASSIFICATION_TYPE": "U", "NORAD_CAT_ID": 34765, "ELEMENT_SET_NO": 999, "REV_AT_EPOCH": 87740, "BSTAR": 0.00029938, "MEAN_MOTION_DOT": 9.73e-06, "MEAN_MOTION_DDOT": 0}, "tle": {"line1": "1 34765U 97051LJ  25355.54395167  .00000973  00000+0  29938-3 0  9999", "line2": "2 34765  86.3382  28.9833 0016466 181.3076 334.2319 14.40485449877403"}}, "geometry": {"type": "Point", "coordinates": [-152.92007393869443, 24.01618978398496]}}]}